[{"OBJECT_NAME":"STARLINK-32549","OBJECT_ID":"2024-222E","EPOCH":"2026-03-09T13:28:58.933344","MEAN_MOTION":15.2756648,"ECCENTRICITY":8.13e-5,"INCLINATION":42.998,"RA_OF_ASC_NODE":136.5501,"ARG_OF_PERICENTER":288.805,"MEAN_ANOMALY":71.2714,"EPHEMERIS_TYPE":0,"CLASSIFICATION_TYPE":"U","NORAD_CAT_ID":62118,"ELEMENT_SET_NO":999,"REV_AT_EPOCH":7279,"BSTAR":0.0012142,"MEAN_MOTION_DOT":0.00033288,"MEAN_MOTION_DDOT":0},{"OBJECT_NAME":"DMSP 5D-2 F13 DEB","OBJECT_ID":"1995-015HL","EPOCH":"2026-02-09T02:06:19.247328","MEAN_MOTION":15.12822218,"ECCENTRICITY":0.00117732,"INCLINATION":98.8603,"RA_OF_ASC_NODE":96.8879,"ARG_OF_PERICENTER":223.037,"MEAN_ANOMALY":136.9936,"EPHEMERIS_TYPE":0,"CLASSIFICATION_TYPE":"U","NORAD_CAT_ID":42294,"ELEMENT_SET_NO":999,"REV_AT_EPOCH":55633,"BSTAR":0.010466292,"MEAN_MOTION_DOT":0.00188804,"MEAN_MOTION_DDOT":0}]
